#aV2024  8  1  0  0  0.00000000     288 DD+AD WGS84 FIT  NGA
## 2325 345600.00000000   300.00000000 60523 0.0000000000000
+   31     2  3  4  5  6  7  8  9 10 11 12 13 14 15 16 17 18
+         19 20 21 22 23 24 25 26 27 28 29 30 31 32  0  0  0
+          0  0  0  0  0  0  0  0  0  0  0  0  0  0  0  0  0
+          0  0  0  0  0  0  0  0  0  0  0  0  0  0  0  0  0
+          0  0  0  0  0  0  0  0  0  0  0  0  0  0  0  0  0
++         2  2  2  2  2  2  2  2  2  2  2  2  2  2  2  2  2
++         2  2  2  2  2  2  2  2  2  2  2  2  2  2  0  0  0
++         0  0  0  0  0  0  0  0  0  0  0  0  0  0  0  0  0
++         0  0  0  0  0  0  0  0  0  0  0  0  0  0  0  0  0
++         0  0  0  0  0  0  0  0  0  0  0  0  0  0  0  0  0
%c cc cc ccc ccc cccc cccc cccc cccc ccccc ccccc ccccc ccccc
%c cc cc ccc ccc cccc cccc cccc cccc ccccc ccccc ccccc ccccc
%f  0.0000000  0.000000000  0.00000000000  0.000000000000000
%f  0.0000000  0.000000000  0.00000000000  0.000000000000000
%i    0    0    0    0      0      0      0      0         0
%i    0    0    0    0      0      0      0      0         0
/*      NGA, ST. LOUIS,MO.                                  
/*   EPHEMERIS COMPUTED FROM 2 DAYS OF DATA                 
/*   EPOCHA v9 SMOOTHER                                     
/*   G2296 IERS2010 SATIGS SATAPC                           
*  2024  8  1 21 35  0.00000000
P  2 -14919.810891   3370.333845  22186.336291   -387.422620                    
V  2  -5902.703166 -26369.028681    345.135848      0.075190                    
P  3 -22693.996060  12200.038359   6026.527060    483.018470                    
V  3   5013.289237  -6420.809115  31135.678416      0.155880                    
P  4 -21553.690377   1913.275326 -15481.222762    415.761811                    
V  4 -17093.521877  -9790.336002  22430.287791      0.075792                    
P  5  18990.012671    725.220000 -18771.694896   -181.768265                    
V  5 -17100.582301  16011.790304 -16771.306790     -0.012978                    
P  6   5037.365390  25824.787169  -3115.651400    125.198398                    
V  6  -1498.298230   4233.811102  32130.143008     -0.237203                    
P  7  -7106.818742  21054.150495 -13671.249195    -58.859074                    
V  7  -5260.300481 -17924.248045 -24413.442431      0.066486                    
P  8 -25640.339155  -5644.663383   5214.875698    298.910568                    
V  8  -5334.729729  -4831.701673 -30373.125712      0.152434                    
P  9 -11912.137253  11197.038899 -21030.153681    296.954972                    
V  9 -24452.821962 -10226.222276   8387.206225      0.153415                    
P 10   2886.060594 -18218.474030  19189.875168    -81.980045                    
V 10  19767.953288 -13624.899514 -16401.457254     -0.104993                    
P 11  12235.747560  17766.718969 -15511.320180   -714.907901                    
V 11   -190.200420  19789.525038  22416.166425     -0.061051                    
P 12  23577.533492  -8716.373521   8223.464152   -527.026055                    
V 12  -7557.871873   8219.647538  29432.402417     -0.030079                    
P 13  22560.296276  14238.915293  -1066.216978    668.265522                    
V 13  -2074.432744   1379.731538 -31813.164667      0.022988                    
P 14  -6848.157691  19663.920880  16403.778017    462.640928                    
V 14 -18216.590492  10463.171154 -20418.575044      0.088030                    
P 15  25978.293955   2689.480496   4819.685364    187.788853                    
V 15   5741.793924   4918.405567 -30288.541094      0.042958                    
P 16 -16821.033678  -5969.728398 -20137.318077   -220.243850                    
V 16  20396.947139 -13972.554986 -12676.560575      0.104803                    
P 17   3126.452322  17150.392013  20411.758585    664.783033                    
V 17 -22912.856111 -10083.526110  12396.953601     -0.087002                    
P 18   6965.072317 -21519.682131 -13730.647452   -642.403356                    
V 18   3951.213563  17186.340969 -25108.749488     -0.035258                    
P 19  12524.286404  18348.180308  14700.310833    518.752746                    
V 19 -17304.102487  -7476.046035  23403.109552      0.052501                    
P 20  12032.197800   9522.689940 -21608.903091    372.129977                    
V 20 -18472.204436  20538.341114  -1379.323593     -0.004050                    
P 21 -16130.243456  -3673.904780  21384.706022    105.403711                    
V 21  -5561.277076 -25388.220360  -7700.350201     -0.021554                    
P 22    524.045866  16968.607600  20911.023449    -46.503622                    
V 22 -21962.400321  13060.108503  -9964.358317     -0.043273                    
P 23  14148.967830 -20037.834413   9934.286296    287.579513                    
V 23  11146.804169  -6291.480113 -28841.447109      0.087671                    
P 24  15701.560241  -1018.853580  20992.667809   -485.205949                    
V 24   6091.576591  27066.706844  -2770.204894     -0.010663                    
P 25  19978.493504 -17246.808859  -1490.306862    499.012467                    
V 25   3286.667124   1710.461439  31598.340075      0.002815                    
P 26  -6493.722742 -15154.267798 -20923.238215    108.832624                    
V 26  20196.243790 -17024.746777   6480.421364     -0.073203                    
P 27 -22747.120564 -13226.520049  -5305.485762    -32.351898                    
V 27   6703.498951    209.271474 -30557.344797     -0.006756                    
P 28  -4737.574256 -26125.834578   -656.707625   -355.629831                    
V 28   2636.969647  -1264.372428  31752.616657     -0.153329                    
P 29  15809.704647  -7403.255138 -20100.231670   -586.445856                    
V 29  22189.682481  12302.126095  12827.474909      0.020555                    
P 30     65.555294  26005.590475  -4490.003082   -347.491250                    
V 30  -4531.810593  -5411.685146 -30648.114417      0.066863                    
P 31 -10844.623648 -20954.754839 -12022.949560   -226.271987                    
V 31   1107.355856 -15291.548167  26514.251375      0.003723                    
P 32  -6206.513988 -17184.945140  19560.457534   -608.698113                    
V 32  22950.412188   8086.656197  14350.004862      0.024560                    
EOF
